OBJECT_NAME,OBJECT_ID,EPOCH,MEAN_MOTION,ECCENTRICITY,INCLINATION,RA_OF_ASC_NODE,ARG_OF_PERICENTER,MEAN_ANOMALY,EPHEMERIS_TYPE,CLASSIFICATION_TYPE,NORAD_CAT_ID,ELEMENT_SET_NO,REV_AT_EPOCH,BSTAR,MEAN_MOTION_DOT,MEAN_MOTION_DDOT
MINXSS-2,2018-099A,2026-07-10T04:09:46.578528,15.48559417,.00082804,97.4528,268.1562,176.0626,184.0691,0,U,43758,999,41768,.57667043E-3,.30749E-3,0
SIRION PATHFINDER-2,2018-099B,2026-07-09T10:41:18.198528,15.14748987,.00078871,97.4244,238.9746,212.4979,147.5769,0,U,43759,999,41599,.1650276E-3,.2996E-4,0
AISTECHSAT 2,2018-099L,2026-07-09T09:43:27.595200,15.15677823,.00040361,97.4285,237.9540,200.8293,159.2775,0,U,43768,999,41564,.2213222E-3,.4147E-4,0
FOX-1CLIFF (AO-95),2018-099N,2026-07-10T03:28:44.388480,15.27204994,.00069822,97.4377,251.3120,261.2710,98.7738,0,U,43770,999,41672,.29948589E-3,.7917E-4,0
RANGE-A,2018-099R,2026-07-09T15:46:08.743296,15.13579951,.0008493,97.3959,232.5795,267.8830,92.1429,0,U,43773,999,41589,.18729816E-3,.3299E-4,0
SNUSAT-2,2018-099AA,2026-07-09T22:47:16.290240,15.22189397,.00096579,97.4052,243.9863,206.5950,153.4792,0,U,43782,999,41649,.26288658E-3,.5973E-4,0
SNUGLITE,2018-099AC,2026-07-10T03:19:09.560640,15.27686786,.00031077,97.3861,245.1973,173.2092,186.9190,0,U,43784,999,41682,.30310506E-3,.8129E-4,0
ITASAT,2018-099AE,2026-07-10T03:22:39.328608,15.19343715,.00107302,97.4020,242.1964,270.9097,89.0908,0,U,43786,999,41639,.21844873E-3,.4555E-4,0
EAGLET-I,2018-099AJ,2026-07-10T12:44:07.345248,15.13114048,.00093979,97.4225,240.5813,262.9103,97.1060,0,U,43790,999,41586,.13957235E-3,.2409E-4,0
ESEO,2018-099AL,2026-07-10T12:40:56.322624,15.04309733,.00107056,97.3952,227.9164,251.7848,108.2214,0,U,43792,999,41531,.89444501E-4,.1189E-4,0
THEA,2018-099AQ,2026-07-10T03:25:14.181600,15.35819372,.00075409,97.4435,261.0687,191.2682,168.8394,0,U,43796,999,41621,.40740163E-3,.14138E-3,0
JY1SAT (JO-97),2018-099AX,2026-07-10T02:55:50.056032,15.34409607,.00064067,97.4121,254.0449,173.8802,186.2520,0,U,43803,999,41714,.40848447E-3,.13549E-3,0
SUOMI-100,2018-099AY,2026-07-10T02:47:55.025376,15.28953452,.00100311,97.4180,251.4306,189.6683,170.4366,0,U,43804,999,41692,.3426691E-3,.9577E-4,0
GLOBAL-2,2018-099BG,2026-07-10T02:07:49.564704,15.08809515,.00076788,97.3551,226.6497,81.0751,279.1347,0,U,43812,999,41536,.11743974E-3,.1788E-4,0
SEAHAWK-1,2018-099BQ,2026-07-08T16:29:02.122368,15.23168577,.00073041,97.3949,241.8476,223.0542,137.0124,0,U,43820,999,41580,.27376045E-3,.6404E-4,0
ISAT,2018-111D,2026-07-09T06:02:09.135168,15.69812662,.00065195,97.5854,127.2412,149.6441,210.5199,0,U,43879,999,41462,.86630162E-3,.104241E-2,0
UWE-4,2018-111E,2026-07-09T06:35:43.813824,15.47549208,.00052707,97.5841,119.7053,218.3666,141.7210,0,U,43880,999,41419,.53767723E-3,.2764E-3,0
D-STAR ONE (SPARROW),2018-111F,2026-07-09T12:18:44.089920,15.82781928,.00068528,97.6090,133.6066,142.7997,217.3747,0,U,43881,999,41489,.9311303E-3,.199926E-2,0
JILIN-1 GAOFEN 3A,2019-032C,2026-07-10T13:05:32.072640,15.33133405,.00046847,44.9739,228.3329,70.2294,289.9096,0,U,44312,999,39142,.20715067E-3,.6454E-4,0
